INTELSAT 902 (IS-902)   
1 26900U 01039A   26192.48377306 -.00000284  00000+0  00000+0 0  9991
2 26900   6.1764  71.4854 0004424  35.9335 306.0222  1.00271111 90934
INTELSAT 904 (IS-904)   
1 27380U 02007A   26192.41610435 -.00000226  00000+0  00000+0 0  9992
2 27380   6.9777  68.8900 0005400  23.3585 315.4057  1.00271577 52006
DIRECTV 5 (TEMPO 1)     
1 27426U 02023A   26192.61441074 -.00000057  00000+0  00000+0 0  9996
2 27426   4.9374  75.0044 0003015  41.5746 284.0173  1.00271016 88364
INTELSAT 905 (IS-905)   
1 27438U 02027A   26192.75163609  .00000091  00000+0  00000+0 0  9990
2 27438   6.8125  69.5005 0003450  44.4109 309.1256  1.00270760 51608
GALAXY 3C (G-3C)        
1 27445U 02030A   26192.61718409 -.00000151  00000+0  00000+0 0  9999
2 27445   3.7938  77.6586 0001499  38.3399 300.8819  1.00270798 46734
INTELSAT 906 (IS-906)   
1 27513U 02041A   26192.64894130  .00000012  00000+0  00000+0 0  9991
2 27513   5.8626  72.6201 0003936  20.3459 134.3399  1.00272426 87279
GALAXY 13 (HORIZONS-1)  
1 27954U 03044A   26192.74912274  .00000136  00000+0  00000+0 0  9992
2 27954   1.4809  83.5516 0002205  22.7246 303.0523  1.00269804 46816
INTELSAT 10-02          
1 28358U 04022A   26192.56461961 -.00000006  00000+0  00000+0 0  9997
2 28358   0.0505 259.1253 0000431 347.6547 244.9427  1.00269529 80801
DIRECTV 8               
1 28659U 05019A   26192.68374666  .00000006  00000+0  00000+0 0  9995
2 28659   0.0189  74.7854 0003023  50.6733 291.2238  1.00271011 77315
GALAXY 28 (G-28)        
1 28702U 05022A   26192.77347619 -.00000199  00000+0  00000+0 0  9990
2 28702   3.3594  78.6243 0002077  35.7057  66.6913  1.00270442 52220
GALAXY 16 (G-16)        
1 29236U 06023A   26192.68782001 -.00000122  00000+0  00000+0 0  9999
2 29236   0.0360 114.5556 0002438   5.6308 318.0191  1.00271267 73211
DIRECTV 9S              
1 29494U 06043A   26192.61614409 -.00000111  00000+0  00000+0 0  9994
2 29494   2.4810  80.6077 0004987  32.5564 296.9675  1.00270966 51625
GALAXY 17 (G-17)        
1 31307U 07016B   26192.54806619 -.00000204  00000+0  00000+0 0  9992
2 31307   3.0305  79.5932 0003553  32.7314 289.4088  1.00270744 70043
INTELSAT 11 (IS-11)     
1 32253U 07044B   26192.28367487 -.00000059  00000+0  00000+0 0  9998
2 32253   3.6253  78.3769 0004033  99.9035 232.8124  0.99050871 68680
HORIZONS-2              
1 32388U 07063B   26192.76420282 -.00000252  00000+0  00000+0 0  9999
2 32388   2.6627  80.3243 0003543  18.1468  32.5118  1.00270298 68061
DIRECTV 11              
1 32729U 08013A   26192.61657742 -.00000120  00000+0  00000+0 0  9995
2 32729   0.0131 264.0793 0000152 268.8149 239.4093  1.00272228 45831
GALAXY 18 (G-18)        
1 32951U 08024A   26192.75440944  .00000000  00000+0  00000+0 0  9999
2 32951   0.0279  47.9198 0002801  78.7436 311.5850  1.00270290 46097
GALAXY 19 (G-19)        
1 33376U 08045A   26192.68816668 -.00000134  00000+0  00000+0 0  9995
2 33376   0.0534 246.1007 0002327 233.9818 320.2425  1.00272177 65145
FM-5                    
1 35493U 09034A   26192.61917743 -.00000195  00000+0  00000+0 0  9992
2 35493   0.0382 274.2458 0000680  60.5782  91.4390  1.00270459 46883
INTELSAT 14 (IS-14)     
1 36097U 09064A   26192.69848006 -.00000269  00000+0  00000+0 0  9991
2 36097   0.0169  30.9146 0002225  85.0476  20.1049  1.00271191 60854
INTELSAT 15 (IS-15)     
1 36106U 09067A   26192.72539262 -.00000180  00000+0  00000+0 0  9992
2 36106   0.0140  58.1521 0002102  60.5894 157.1810  1.00271240 41478
DIRECTV 12              
1 36131U 09075A   26192.61588409 -.00000098  00000+0  00000+0 0  9992
2 36131   0.0094 118.0139 0000338  95.9566 194.5362  1.00271942 46798
INTELSAT 16 (IS-16)     
1 36397U 10006A   26192.76359615 -.00000240  00000+0  00000+0 0  9992
2 36397   0.0114  31.2317 0002275 104.5623 352.5648  1.00270962 59903
XM-5                    
1 37185U 10053A   26192.36937604 -.00000017  00000+0  00000+0 0  9998
2 37185   0.0631 266.8044 0001801 317.5891  82.6642  1.00271440 57728
INTELSAT 17 (IS-17)     
1 37238U 10065B   26192.65491030  .00000004  00000+0  00000+0 0  9995
2 37238   0.0188  91.3792 0002640  24.5414 115.3989  1.00271935 53490
INTELSAT 28 (IS-28)     
1 37392U 11016A   26192.77252286 -.00000222  00000+0  00000+0 0  9997
2 37392   1.8670  82.3161 0003677  38.6451  55.1010  1.00271817 53534
INTELSAT 18 (IS-18)     
1 37834U 11056A   26192.74314272  .00000058  00000+0  00000+0 0  9999
2 37834   0.0213 296.1403 0001721 191.8031 249.2368  1.00272881 54059
INTELSAT 22 (IS-22)     
1 38098U 12011A   26192.70383084  .00000000  00000+0  00000+0 0  9994
2 38098   0.0392  69.3858 0001934  63.5686 122.1201  1.00271188  7435
INTELSAT 19 (IS-19)     
1 38356U 12030A   26192.74036936 -.00000052  00000+0  00000+0 0  9995
2 38356   0.0147  39.7279 0003072  84.6687 237.7768  1.00271070 50695
INTELSAT 20 (IS-20)     
1 38740U 12043A   26192.90183788 -.00000023  00000+0  00000+0 0  9990
2 38740   0.0122  62.5753 0003753 345.9835 274.4518  1.00279880 50991
INTELSAT 21 (IS-21)     
1 38749U 12045A   26192.69588005 -.00000280  00000+0  00000+0 0  9993
2 38749   0.0030 104.5339 0001716  28.8141 348.7624  1.00271034 50771
